OBJECT_NAME,OBJECT_ID,EPOCH,MEAN_MOTION,ECCENTRICITY,INCLINATION,RA_OF_ASC_NODE,ARG_OF_PERICENTER,MEAN_ANOMALY,EPHEMERIS_TYPE,CLASSIFICATION_TYPE,NORAD_CAT_ID,ELEMENT_SET_NO,REV_AT_EPOCH,BSTAR,MEAN_MOTION_DOT,MEAN_MOTION_DDOT
GSAT0225 (GALILEO 29),2024-079A,2026-07-23T11:18:20.536128,1.70474088,.0000263,55.1409,100.0656,338.6950,195.2242,0,U,59598,999,1393,0,-.48E-6,0
GSAT0227 (GALILEO 30),2024-079C,2026-07-18T02:12:23.834592,1.70473877,.00029504,55.1327,100.2145,69.2435,290.8270,0,U,59600,999,1389,0,-.31E-6,0
GSAT0232 (GALILEO 32),2024-167A,2026-07-23T02:45:59.706432,1.70474277,.0006357,55.1775,220.3272,233.9215,184.7136,0,U,61182,999,1149,0,.75E-6,0
GSAT0226 (GALILEO 31),2024-167B,2026-07-21T23:51:26.549856,1.70474215,.00031803,55.1766,220.3651,239.5530,302.2968,0,U,61183,999,1144,0,.69E-6,0
BEIDOU-3 M25 (C47),2024-168B,2026-07-23T10:44:14.860608,1.86230351,.0003547,54.4384,300.9812,291.0777,77.4803,0,U,61186,999,1246,0,-.94E-6,0
BEIDOU-3 M27 (C49),2024-168C,2026-07-23T18:31:45.806016,1.86230449,.0000817,54.4336,300.9527,35.8427,325.4221,0,U,61187,999,994,0,-.91E-6,0
GPS BIII-7  (PRN 01),2024-242A,2026-07-19T17:19:15.611808,2.00572353,.00179964,54.8338,332.8621,4.3540,337.1791,0,U,62339,999,1190,0,-.109E-5,0
QZS-6 (QZSS/PRN 200),2025-023A,2026-07-23T20:15:30.678048,1.00273687,.0002091,0.0198,55.6692,60.5066,219.7744,0,U,62876,999,531,0,-.228E-5,0
COSMOS 2584 (704K),2025-042A,2026-07-21T20:46:04.787616,2.13103874,.00055922,65.1046,71.6233,211.4404,148.5924,0,U,63130,999,1078,0,-.53E-6,0
GPS BIII-8  (PRN 21),2025-116A,2026-07-23T05:38:38.675040,2.00573560,.0008389,55.2596,29.6807,339.3259,202.3720,0,U,64202,999,859,0,-.8E-6,0
COSMOS 2596 (708K),2025-206B,2026-07-21T17:05:13.845120,2.13101030,.00112411,64.6120,313.7831,307.0070,51.3277,0,U,65590,999,664,0,-.9E-6,0
GSAT0233 (GALILEO 33),2025-302A,2026-07-21T20:08:24.676800,1.70474120,.00011835,54.3554,101.1433,153.0567,30.2541,0,U,67160,999,371,0,-.48E-6,0
GSAT0234 (GALILEO 34),2025-302C,2026-07-23T07:15:46.508832,1.70474095,.0001512,54.3582,101.1005,325.5942,215.9708,0,U,67162,999,379,0,-.49E-6,0
GPS BIII-9  (PRN 20),2026-017A,2026-07-23T02:15:03.701376,2.00570431,.0021267,55.1115,87.3138,260.4452,99.3642,0,U,67588,999,43233,0,-.68E-6,0
GPS BIII-10 (PRN 13),2026-087A,2026-07-23T01:20:29.478336,2.00573476,.0020497,54.9614,206.3692,105.7313,72.5010,0,U,68791,999,155,0,.89E-6,0
